BEESAT-1                
1 35933U 09051C   26133.26632221  .00000494  00000+0  10908-3 0  9994
2 35933  98.3987  40.2528 0005036 351.2715   8.8397 14.61660725884089
ITUPSAT1                
1 35935U 09051E   26133.15818821  .00000453  00000+0  10367-3 0  9990
2 35935  98.4072  39.3718 0007440 358.3068   1.8105 14.60385418883628
XIWANG-1 (HOPE-1)       
1 36122U 09072B   26133.51228545 -.00000113  00000+0 -17904-3 0  9999
2 36122 100.4002  87.9017 0007090 317.6849  42.3717 13.16438721788440
O/OREOS (USA 219)       
1 37224U 10062C   26133.43699340  .00001113  00000+0  11130-3 0  9994
2 37224  71.9683 159.0442 0013028 138.9020 221.3134 14.93593522111457
JUGNU                   
1 37839U 11058B   26133.21996584  .00000382  00000+0  60057-4 0  9998
2 37839  19.9589 160.8629 0018749  50.6973  19.1957 14.13766034754074
SRMSAT                  
1 37841U 11058D   26133.43846406  .00000365  00000+0  54247-4 0  9997
2 37841  19.9724 269.8009 0011672 181.4461 226.2347 14.11567807752902
STRAND-1                
1 39090U 13009E   26133.24487063  .00000173  00000+0  72597-4 0  9997
2 39090  98.3916 314.3410 0008178 343.6635  16.4288 14.37141852692045
ZACUBE-1 (TSHEPISOSAT)  
1 39417U 13066B   26133.34344936  .00002785  00000+0  21971-3 0  9995
2 39417  97.8118  95.4912 0041807  10.4134 349.7946 15.00910563675508
GOMX-1                  
1 39430U 13066Q   26133.52428353  .00001116  00000+0  17435-3 0  9993
2 39430  97.6515 336.1730 0128478 188.1862 171.7250 14.69318487664821
CUBEBUG-2 (LO-74)       
1 39440U 13066AA  26133.36077527  .00001527  00000+0  14601-3 0  9997
2 39440  97.8891  82.2050 0058865 141.5245 219.0194 14.93493081671793
FUNCUBE-1 (AO-73)       
1 39444U 13066AE  26133.51445031  .00004881  00000+0  30844-3 0  9990
2 39444  97.8259 104.2531 0035304 324.5150  35.3730 15.09027653674430
UWE-3                   
1 39446U 13066AG  26133.38821264  .00002066  00000+0  18157-3 0  9999
2 39446  97.8680  89.2422 0050799  75.9697 284.7165 14.96721930672376
UNISAT-6                
1 40012U 14033C   26133.43760946  .00001958  00000+0  21529-3 0  9996
2 40012  97.7838 286.7753 0045247 181.3303 178.7801 14.88035283640992
DUCHIFAT-1              
1 40021U 14033M   26133.08859225  .00047059  00000+0  61912-3 0  9998
2 40021  98.0508 187.5109 0005818 186.4444 173.6736 15.58323990650271
QB50P1                  
1 40025U 14033R   26133.47676531  .00005113  00000+0  25722-3 0  9996
2 40025  98.0980 142.2038 0008319 357.1376   2.9807 15.17704544647764
LILACSAT-2              
1 40908U 15049K   26133.55844944  .00010504  00000+0  18722-3 0  9990
2 40908  97.4695 169.1080 0007563  35.4274 324.7479 15.50267431590389
FOX-1A (AO-85)          
1 40967U 15058D   26133.13585852  .00002000  00000+0  18869-3 0  9993
2 40967  64.7769  27.8942 0128985  70.3373 291.1605 14.90756995108340
CAS-2T & KS-1Q          
1 41847U 16066G   26133.46988979  .00000526  00000+0  83846-4 0  9993
2 41847  98.3825 209.5991 0341087 234.7873 122.0946 14.44591476499789
RADFXSAT (FOX-1B)       
1 43017U 17073E   26133.14210922  .00005670  00000+0  24989-3 0  9991
2 43017  97.4759   1.0860 0154122  89.6523 272.2366 15.12056378460096
DIWATA-2B               
1 43678U 18084H   26133.49014769  .00001858  00000+0  15340-3 0  9991
2 43678  98.1106 328.2112 0011950 290.9057  69.0886 15.00275640411016
ES'HAIL 2               
1 43700U 18090A   26133.46840221  .00000158  00000+0  00000+0 0  9996
2 43700   0.0134 270.3280 0001565 176.7888 338.5847  1.00274452 27325
FOX-1CLIFF (AO-95)      
1 43770U 18099N   26133.13417852  .00006585  00000+0  25914-3 0  9991
2 43770  97.4410 193.5273 0010453 110.5919 249.6442 15.25925564407878
ITASAT                  
1 43786U 18099AE  26133.10365259  .00004108  00000+0  20143-3 0  9996
2 43786  97.4059 185.3231 0014352 113.5192 246.7551 15.18586233407580
JY1SAT (JO-97)          
1 43803U 18099AX  26133.11013581  .00011290  00000+0  36177-3 0  9999
2 43803  97.4155 195.8505 0006376  50.5277 309.6528 15.32511515408253
UWE-4                   
1 43880U 18111E   26133.30495299  .00018936  00000+0  41701-3 0  9993
2 43880  97.5858  60.1511 0010673  91.3631 268.8840 15.43940846405392
TIANYAN 01              
1 44881U 19093C   26133.51260675  .00000661  00000+0  80718-4 0  9994
2 44881  97.7540 206.5896 0012974 194.8416 165.2421 14.86461982346262
RS-44 & BREEZE-KM R/B   
1 44909U 19096E   26133.37073068  .00000014  00000+0  17760-4 0  9999
2 44909  82.5240   2.8443 0216652 225.6057 132.7128 12.79748094297899
SALSAT                  
1 46495U 20068K   26133.47213522  .00005117  00000+0  18286-3 0  9996
2 46495  97.8857 134.4391 0011494  69.4253 290.8218 15.29270931310055
XW-3 (CAS-9)            
1 50466U 21131B   26133.48341446  .00000344  00000+0  12001-3 0  9995
2 50466  98.4956 226.0645 0003874 184.8386 175.2766 14.41323036230117
GREENCUBE (IO-117)      
1 53109U 22080E   26133.47737909 -.00000003  00000+0  00000+0 0  9993
2 53109  70.1436 310.3212 0008811 297.6025  62.3740  6.42583324 89839
UMKA 1 (RS40S)          
1 57172U 23091G   26133.41434380  .00003339  00000+0  15623-3 0  9996
2 57172  97.5075 192.2521 0011581 236.2774 123.7358 15.20405473158729
CUBESX-HSE 3 (RS42S)    
1 57178U 23091N   26133.46225867  .00008191  00000+0  28160-3 0  9996
2 57178  97.5114 198.6326 0010450 207.1185 152.9511 15.30307981159114
MONITOR-3 (RS58S)       
1 57180U 23091Q   26133.47784109  .00006249  00000+0  23744-3 0  9994
2 57180  97.5107 196.6855 0011083 214.9592 145.0920 15.27118986158998
MONITOR-4 (RS57S)       
1 57182U 23091S   26133.45905444  .00006210  00000+0  23528-3 0  9999
2 57182  97.5101 196.6355 0011048 215.3244 144.7264 15.27215455158995
MONITOR-2 (RS39S)       
1 57184U 23091U   26133.45880521  .00002953  00000+0  14605-3 0  9995
2 57184  97.5098 191.9708 0010102 227.4547 132.5834 15.18575948158682
SVYATOBOR 1 (RS60S)     
1 57187U 23091X   26133.44342728  .00005192  00000+0  20464-3 0  9997
2 57187  97.5112 197.0817 0008993 205.3053 154.7746 15.25999990159013
VIZARD-METEO (RS38S)    
1 57189U 23091Z   26133.47679294  .00010239  00000+0  30472-3 0  9991
2 57189  97.5111 202.2953 0007710 183.0575 177.0622 15.34888763159365
POLYTECH-UNIVERSE 3 (R*)
1 57191U 23091AB  26133.49054502  .00002973  00000+0  14602-3 0  9998
2 57191  97.5072 191.5073 0014131 247.2980 112.6760 15.18773601158683
UTMN 2 (RS27S)          
1 57203U 23091AP  26133.43380801  .00007064  00000+0  23705-3 0  9990
2 57203  97.5109 200.1947 0008127 191.3726 168.7332 15.31168312159220
KUZGTU 1 (RS47S)        
1 57217U 23091AV  26133.48906301  .00007170  00000+0  25665-3 0  9994
2 57217  97.5087 197.6350 0010506 211.2039 148.8578 15.29038258159077
SONATE-2                
1 59112U 24043Q   26133.37741956  .00025296  00000+0  36180-3 0  9992
2 59112  97.5493 281.7198 0005913 330.7378  29.3544 15.56195234122476
MESAT1                  
1 60209U 24125G   26133.17537009  .00030088  00000+0  37830-3 0  9990
2 60209  97.2351 349.9517 0009290 355.5033   4.6139 15.59580914104104
OOV-CUBE (TUBSAT-30)    
1 60240U 24128F   26133.12030143  .00001450  00000+0  12162-3 0  9992
2 60240  61.9950 347.8334 0048909 126.1268 234.4365 15.02589480100844
COLIBRI-S (RS67S)       
1 61746U 24199M   26133.51955409  .00013999  00000+0  28573-3 0  9990
2 61746  97.3051   7.0897 0010073  55.7597 304.4606 15.46246580132056
HORS 3 (RS81S)          
1 61753U 24199U   26133.50409979  .00024593  00000+0  40080-3 0  9992
2 61753  97.3039   8.7116 0008287  61.7858 298.4231 15.52579845132172
HORS 4 (RS82S)          
1 61754U 24199V   26133.49585204  .00032254  00000+0  45494-3 0  9994
2 61754  97.2987   9.7021 0007388  60.0930 300.1058 15.56510114132248
HORIZON (RS59S)         
1 61757U 24199Y   26132.84312203  .01413992  15468-2  11329-2 0  9991
2 61757  97.2731  15.8430 0004508 202.0314 158.0779 16.14808852132586
ARCTICSAT 1 (RS74S)     
1 61762U 24199AD  26133.40649384  .00189065  00000+0  80244-3 0  9999
2 61762  97.2927  14.9580 0003186  91.1511 269.0125 15.84811650132575
SIT-2086                
1 61764U 24199AF  26133.50470214  .00015622  00000+0  27313-3 0  9991
2 61764  97.3005   9.3055 0008150  45.6440 314.5478 15.50698261129051
HYPERVIEW 1G (RS66S)    
1 61772U 24199AP  26133.48676072  .00071192  00000+0  63971-3 0  9991
2 61772  97.2951  11.6677 0007308  62.3958 297.8045 15.68003948129222
ALTAIR (RS65S)          
1 61779U 24199AW  26133.53435760  .00006598  00000+0  18780-3 0  9997
2 61779  97.3082   3.1240 0014724  73.9022 286.3842 15.36347933131790
ASRTU-1 (AO-123)        
1 61781U 24199AY  26133.55878756  .00005238  00000+0  15529-3 0  9996
2 61781  97.3052   2.5476 0015832  75.6381 284.6618 15.35150349128613
SAMSAT-IONOSPHERE (RS7*)
1 61784U 24199BB  26133.52572527  .00029869  00000+0  45104-3 0  9991
2 61784  97.3006   8.6714 0010512  60.1376 300.0921 15.54630612132173
RTU MIREA 1 (RS51S)     
1 61785U 24199BC  26133.49050676  .00035536  00000+0  48391-3 0  9993
2 61785  97.2999   9.3077 0010281  58.4819 301.7439 15.57410177129060
TEVEL2-4                
1 63213U 25052D   26133.21703493  .00010134  00000+0  31672-3 0  9993
2 63213  97.3947  29.5787 0001650 172.9498 187.1768 15.33357973 64752
TEVEL2-5                
1 63214U 25052E   26133.23382095  .00009736  00000+0  30587-3 0  9997
2 63214  97.3948  29.5530 0001624 172.1246 188.0022 15.33202499 64759
TEVEL2-6                
1 63215U 25052F   26133.24530330  .00010305  00000+0  32396-3 0  9990
2 63215  97.3948  29.5493 0001699 177.1001 183.0252 15.33165748 64759
TEVEL2-1                
1 63217U 25052H   26133.26274763  .00010080  00000+0  32184-3 0  9994
2 63217  97.3921  29.2310 0001142 196.4302 163.6903 15.32676115 64748
TEVEL2-3                
1 63218U 25052J   26133.19327211  .00010063  00000+0  32083-3 0  9993
2 63218  97.3924  29.1793 0001100 196.7883 163.3323 15.32722625 64737
